IRIDIUM 155             
1 43573U 18061E   23142.02401578  .00000189  00000+0  60561-4 0  9996
2 43573  86.3985 165.6848 0002591  90.7641 269.3851 14.34215829252524
IRIDIUM 154             
1 43574U 18061F   23142.35382181  .00000304  00000+0  10165-3 0  9994
2 43574  86.3987 165.6260 0002248  96.5129 263.6323 14.34220986252610
IRIDIUM 163             
1 43575U 18061G   23141.77665425  .00000132  00000+0  39979-4 0  9999
2 43575  86.3985 165.8172 0002210  92.5279 267.6170 14.34213935252502
IRIDIUM 156             
1 43576U 18061H   23141.82104850  .00000296  00000+0  98587-4 0  9997
2 43576  86.3987 165.8044 0002476  86.8665 273.2814 14.34219783252507
IRIDIUM 164             
1 43577U 18061J   23142.01132529  .00000270  00000+0  89227-4 0  9997
2 43577  86.3987 165.7480 0002147  91.8696 268.2746 14.34218597252573
IRIDIUM 159             
1 43578U 18061K   23141.77030993  .00000218  00000+0  70762-4 0  9998
2 43578  86.3985 165.8092 0002382  94.2358 265.9110 14.34216193252507
IRIDIUM 180             
1 43922U 19002A   23142.18841490  .00000406  00000+0  13776-3 0  9995
2 43922  86.3946 102.5346 0002143  87.9481 272.1960 14.34219100228213
IRIDIUM 176             
1 43923U 19002B   23141.87620935  .00001321  00000+0  20550-3 0  9995
2 43923  86.6077 102.7048 0002594  86.8236 273.3278 14.72264835234128
IRIDIUM 168             
1 43924U 19002C   23142.18207054  .00000406  00000+0  13804-3 0  9991
2 43924  86.3948 102.5829 0002225  89.5253 270.6197 14.34218571228158
IRIDIUM 173             
1 43925U 19002D   23142.16938285  .00000412  00000+0  14019-3 0  9993
2 43925  86.3945 102.5229 0002174  89.6036 270.5409 14.34219878228148
IRIDIUM 169             
1 43926U 19002E   23142.03944359  .00000237  00000+0  70843-4 0  9992
2 43926  86.4206 134.1914 0005994  83.9121 276.2760 14.38608466228891
IRIDIUM 172             
1 43927U 19002F   23142.16304351  .00000398  00000+0  13520-3 0  9995
2 43927  86.3945 102.5301 0002314  88.2646 271.8815 14.34219225228140
IRIDIUM 175             
1 43928U 19002G   23141.80182605  .00001337  00000+0  20815-3 0  9991
2 43928  86.1495  98.0435 0002417  86.7179 273.4314 14.72246039234104
IRIDIUM 171             
1 43929U 19002H   23142.14401310  .00000353  00000+0  11892-3 0  9999
2 43929  86.3954 102.7199 0002151  89.3725 270.7718 14.34219641228139
IRIDIUM 170             
1 43930U 19002J   23141.40663022  .00001283  00000+0  19956-3 0  9991
2 43930  86.6077 102.9061 0002504  89.6879 270.4625 14.72257725234065
IRIDIUM 167             
1 43931U 19002K   23142.34698037  .00000400  00000+0  13565-3 0  9990
2 43931  86.3946 102.4657 0002111  89.6476 270.4962 14.34218572228164
